SCD 1                   
1 22490U 93009B   26200.89308296  .00000298  00000+0  30603-4 0  9997
2 22490  24.9708   5.6350 0042037 123.9966  29.1906 14.46129704765856
TECHSAT 1B (GO-32)      
1 25397U 98043D   26201.21901481  .00000014  00000+0  26364-4 0  9996
2 25397  99.0089 194.8138 0002305 107.1478 252.9953 14.24433954456037
SCD 2                   
1 25504U 98060A   26201.09008765  .00000264  00000+0  23013-4 0  9999
2 25504  24.9937 229.2492 0016979 110.4568 274.6330 14.45535622465095
DLR-TUBSAT              
1 25757U 99029B   26201.22289762  .00000015  00000+0  15641-4 0  9990
2 25757  98.6714 197.8170 0013055 248.1409 111.8397 14.52433847438048
TERRA                   
1 25994U 99068A   26201.23333441  .00000183  00000+0  46234-4 0  9999
2 25994  97.9437 249.4663 0003584 113.1192 319.2409 14.61126000414437
MAROC-TUBSAT            
1 27004U 01056D   26201.31009553 -.00000039  00000+0  80892-5 0  9996
2 27004  99.8103  18.7968 0020524  59.4726  63.3423 13.70263601230724
AQUA                    
1 27424U 02022A   26201.25349119  .00000386  00000+0  86577-4 0  9993
2 27424  98.4300 171.2019 0001298 102.0478  10.8857 14.62132779288108
SHIYAN-1 (SY-1)         
1 28220U 04012A   26201.18659579  .00007068  00000+0  21394-3 0  9994
2 28220  97.8677 281.4171 0004250 251.5023 108.5757 15.34524431216153
AURA                    
1 28376U 04026A   26201.26265229  .00000390  00000+0  88542-4 0  9995
2 28376  98.3433 157.9941 0001396  93.9415 266.1945 14.61372067171047
IRS-P5 (CARTOSAT-1)     
1 28649U 05017A   26201.29609458  .00000644  00000+0  70180-4 0  9999
2 28649  97.5306 222.8591 0001045  54.5474 305.5843 14.91124795148755
SINAH 1                 
1 28893U 05043D   26201.26682728  .00000152  00000+0  38197-4 0  9993
2 28893  98.2900 335.7908 0014753 167.8670 192.2890 14.64177399105367
RESURS-DK 1             
1 29228U 06021A   26200.88732648  .00000908  00000+0  56925-4 0  9995
2 29228  69.9302 254.8969 0007388 265.9796  94.0526 15.13328606107523
ARIRANG-2 (KOMPSAT-2)   
1 29268U 06031A   26201.30141381 -.00000076  00000+0 -58014-5 0  9996
2 29268  97.8321  24.1470 0013801 334.3203 150.0037 14.64676402 66321
LAPAN-TUBSAT            
1 29709U 07001A   26201.24962764  .00000013  00000+0  80858-5 0  9993
2 29709  98.1360 201.2217 0013679  79.0743 281.2010 14.85979690 56066
HAIYANG-1B              
1 31113U 07010A   26200.93728837  .00000039  00000+0  30413-4 0  9990
2 31113  98.3519 181.5160 0014780 102.8855 257.3981 14.31034059  5322
COSMO-SKYMED 1          
1 31598U 07023A   26201.28457038  .00001856  00000+0  16555-3 0  9990
2 31598  97.8853  33.4210 0001776  97.5890 262.5533 14.97236835 34742
TERRASAR-X              
1 31698U 07026A   26200.46718929  .00000140  00000+0  98360-5 0  9993
2 31698  97.4461 207.7136 0001650  90.1408 270.0015 15.19149681 58126
WORLDVIEW-1 (WV-1)      
1 32060U 07041A   26201.30889966  .00003317  00000+0  13746-3 0  9990
2 32060  97.3904 320.5901 0002033 185.8978 174.2236 15.24591649 47922
YAOGAN-3                
1 32289U 07055A   26201.28342414  .00000581  00000+0  64612-4 0  9996
2 32289  97.8139 230.8343 0001344  81.1299 279.0071 14.90889497 10802
COSMO-SKYMED 2          
1 32376U 07059A   26201.30872677  .00000185  00000+0  29817-4 0  9997
2 32376  97.8897  24.4279 0001457  93.8976 266.2404 14.82152835  6917
RADARSAT-2              
1 32382U 07061A   26201.27397061  .00000122  00000+0  64063-4 0  9995
2 32382  98.5788 207.7345 0001331  85.5051 274.6284 14.29984340970682
CARTOSAT-2A             
1 32783U 08021A   26201.32664940 -.00000124  00000+0 -98704-5 0  9990
2 32783  97.7610 248.9015 0012044  11.3598 348.7884 14.79278925983705
HUANJING 1A (HJ-1A)     
1 33320U 08041A   26201.27238307  .00000779  00000+0  99299-4 0  9991
2 33320  97.6709 185.8362 0020056  34.1084 326.1415 14.84057097963316
HUANJING 1B (HJ-1B)     
1 33321U 08041B   26201.25667216  .00000627  00000+0  81758-4 0  9998
2 33321  97.6543 188.8919 0037959  75.4518 285.0902 14.83370538963315
GEOEYE 1                
1 33331U 08042A   26201.21669082  .00000204  00000+0  47366-4 0  9997
2 33331  98.1323 274.7536 0003589 328.1451  31.9534 14.64651784954980
THEOS                   
1 33396U 08049A   26201.29440701 -.00000137  00000+0 -44384-4 0  9992
2 33396  98.5548 257.5003 0001112  92.7651 267.3654 14.20136407922668
COSMO-SKYMED 3          
1 33412U 08054A   26201.27495137  .00001682  00000+0  11604-3 0  9990
2 33412  97.8250  60.3917 0016234 149.2315 210.9868 15.07135668961926
YAOGAN-4                
1 33446U 08061A   26201.22320342  .00000504  00000+0  68178-4 0  9996
2 33446  97.9302 134.4910 0013418 328.6173  31.4238 14.83256946950565
GOSAT (IBUKI)           
1 33492U 09002A   26200.86579859  .00000288  00000+0  59206-4 0  9992
2 33492  98.0918 311.5418 0001171  92.1650 267.9688 14.67536303936253
DEIMOS-1                
1 35681U 09041A   26201.28558262  .00000387  00000+0  64289-4 0  9996
2 35681  97.7445 357.0849 0002786  85.5551 274.5977 14.75267363911768
